{
  "type": "FeatureCollection",
  "features": [
    {
      "type": "Feature",
      "properties": {
        "norad_id": 67038,
        "name": "STARLINK-35775",
        "group": "last-30-days",
        "lat": 7.47558389028838,
        "lon": -51.76035925890763,
        "alt_km": 304.6502500501583,
        "timestamp": "2025-12-20T05:41:48.745584+00:00",
        "meta_object_name": "STARLINK-35775",
        "meta_object_id": "2025-294J",
        "meta_epoch": "2025-12-19T22:00:01.999584",
        "meta_mean_motion": 15.89831023,
        "meta_eccentricity": 0.000165,
        "meta_inclination": 42.9997,
        "meta_ra_of_asc_node": 138.3225,
        "meta_arg_of_pericenter": 279.0512,
        "meta_mean_anomaly": 212.791,
        "meta_ephemeris_type": 0,
        "meta_classification_type": "U",
        "meta_norad_cat_id": 67038,
        "meta_element_set_no": 999,
        "meta_rev_at_epoch": 138,
        "meta_bstar": -0.0049780222,
        "meta_mean_motion_dot": -0.01349985,
        "meta_mean_motion_ddot": 0,
        "tle_line1": "1 67038U 25294J   25353.91668981 -.01349985  00000+0 -49780-2 0  9992",
        "tle_line2": "2 67038  42.9997 138.3225 0001650 279.0512 212.7910 15.89831023  1382"
      },
      "geometry": {
        "type": "Point",
        "coordinates": [
          -51.76035925890763,
          7.47558389028838
        ]
      }
    },
    {
      "type": "Feature",
      "properties": {
        "norad_id": 67039,
        "name": "STARLINK-35705",
        "group": "last-30-days",
        "lat": 4.659703185783263,
        "lon": -48.69367837928102,
        "alt_km": 304.6938456169255,
        "timestamp": "2025-12-20T05:41:48.745594+00:00",
        "meta_object_name": "STARLINK-35705",
        "meta_object_id": "2025-294K",
        "meta_epoch": "2025-12-19T22:00:01.999584",
        "meta_mean_motion": 15.89920848,
        "meta_eccentricity": 0.00016808,
        "meta_inclination": 42.9998,
        "meta_ra_of_asc_node": 138.3122,
        "meta_arg_of_pericenter": 276.5594,
        "meta_mean_anomaly": 219.344,
        "meta_ephemeris_type": 0,
        "meta_classification_type": "U",
        "meta_norad_cat_id": 67039,
        "meta_element_set_no": 999,
        "meta_rev_at_epoch": 130,
        "meta_bstar": -0.0050197716,
        "meta_mean_motion_dot": -0.01365466,
        "meta_mean_motion_ddot": 0,
        "tle_line1": "1 67039U 25294K   25353.91668981 -.01365466  00000+0 -50198-2 0  9990",
        "tle_line2": "2 67039  42.9998 138.3122 0001680 276.5594 219.3440 15.89920848  1302"
      },
      "geometry": {
        "type": "Point",
        "coordinates": [
          -48.69367837928102,
          4.659703185783263
        ]
      }
    },
    {
      "type": "Feature",
      "properties": {
        "norad_id": 67040,
        "name": "STARLINK-35786",
        "group": "last-30-days",
        "lat": 5.994571498707814,
        "lon": -50.140930985644644,
        "alt_km": 304.5849334137365,
        "timestamp": "2025-12-20T05:41:48.745604+00:00",
        "meta_object_name": "STARLINK-35786",
        "meta_object_id": "2025-294L",
        "meta_epoch": "2025-12-19T22:00:01.999584",
        "meta_mean_motion": 15.89879834,
        "meta_eccentricity": 0.00016104,
        "meta_inclination": 42.9999,
        "meta_ra_of_asc_node": 138.3172,
        "meta_arg_of_pericenter": 274.1044,
        "meta_mean_anomaly": 219.8768,
        "meta_ephemeris_type": 0,
        "meta_classification_type": "U",
        "meta_norad_cat_id": 67040,
        "meta_element_set_no": 999,
        "meta_rev_at_epoch": 130,
        "meta_bstar": -0.005015778,
        "meta_mean_motion_dot": -0.01361932,
        "meta_mean_motion_ddot": 0,
        "tle_line1": "1 67040U 25294L   25353.91668981 -.01361932  00000+0 -50158-2 0  9992",
        "tle_line2": "2 67040  42.9999 138.3172 0001610 274.1044 219.8768 15.89879834  1303"
      },
      "geometry": {
        "type": "Point",
        "coordinates": [
          -50.140930985644644,
          5.994571498707814
        ]
      }
    },
    {
      "type": "Feature",
      "properties": {
        "norad_id": 67041,
        "name": "STARLINK-35765",
        "group": "last-30-days",
        "lat": 3.3819818929860164,
        "lon": -47.3163861501034,
        "alt_km": 304.72548285438916,
        "timestamp": "2025-12-20T05:41:48.745614+00:00",
        "meta_object_name": "STARLINK-35765",
        "meta_object_id": "2025-294M",
        "meta_epoch": "2025-12-19T22:00:01.999584",
        "meta_mean_motion": 15.89966848,
        "meta_eccentricity": 0.00016328,
        "meta_inclination": 42.9998,
        "meta_ra_of_asc_node": 138.3076,
        "meta_arg_of_pericenter": 277.2421,
        "meta_mean_anomaly": 220.4903,
        "meta_ephemeris_type": 0,
        "meta_classification_type": "U",
        "meta_norad_cat_id": 67041,
        "meta_element_set_no": 999,
        "meta_rev_at_epoch": 130,
        "meta_bstar": -0.0050397915,
        "meta_mean_motion_dot": -0.01373046,
        "meta_mean_motion_ddot": 0,
        "tle_line1": "1 67041U 25294M   25353.91668981 -.01373046  00000+0 -50398-2 0  9998",
        "tle_line2": "2 67041  42.9998 138.3076 0001632 277.2421 220.4903 15.89966848  1304"
      },
      "geometry": {
        "type": "Point",
        "coordinates": [
          -47.3163861501034,
          3.3819818929860164
        ]
      }
    },
    {
      "type": "Feature",
      "properties": {
        "norad_id": 67042,
        "name": "STARLINK-35773",
        "group": "last-30-days",
        "lat": 1.957581939596843,
        "lon": -45.787747395275254,
        "alt_km": 304.7470001747706,
        "timestamp": "2025-12-20T05:41:48.745626+00:00",
        "meta_object_name": "STARLINK-35773",
        "meta_object_id": "2025-294N",
        "meta_epoch": "2025-12-19T22:00:01.999584",
        "meta_mean_motion": 15.89975425,
        "meta_eccentricity": 0.00019787,
        "meta_inclination": 42.9998,
        "meta_ra_of_asc_node": 138.3023,
        "meta_arg_of_pericenter": 273.6843,
        "meta_mean_anomaly": 226.1225,
        "meta_ephemeris_type": 0,
        "meta_classification_type": "U",
        "meta_norad_cat_id": 67042,
        "meta_element_set_no": 999,
        "meta_rev_at_epoch": 146,
        "meta_bstar": -0.004932182,
        "meta_mean_motion_dot": -0.01348111,
        "meta_mean_motion_ddot": 0,
        "tle_line1": "1 67042U 25294N   25353.91668981 -.01348111  00000+0 -49322-2 0  9999",
        "tle_line2": "2 67042  42.9998 138.3023 0001978 273.6843 226.1225 15.89975425  1466"
      },
      "geometry": {
        "type": "Point",
        "coordinates": [
          -45.787747395275254,
          1.957581939596843
        ]
      }
    },
    {
      "type": "Feature",
      "properties": {
        "norad_id": 67043,
        "name": "STARLINK-35901",
        "group": "last-30-days",
        "lat": 0.5466746623726063,
        "lon": -44.277331974583355,
        "alt_km": 304.7552734258843,
        "timestamp": "2025-12-20T05:41:48.745636+00:00",
        "meta_object_name": "STARLINK-35901",
        "meta_object_id": "2025-294P",
        "meta_epoch": "2025-12-19T22:00:01.999584",
        "meta_mean_motion": 15.9005812,
        "meta_eccentricity": 0.00016042,
        "meta_inclination": 42.9999,
        "meta_ra_of_asc_node": 138.2975,
        "meta_arg_of_pericenter": 275.8346,
        "meta_mean_anomaly": 225.9603,
        "meta_ephemeris_type": 0,
        "meta_classification_type": "U",
        "meta_norad_cat_id": 67043,
        "meta_element_set_no": 999,
        "meta_rev_at_epoch": 146,
        "meta_bstar": -0.0050742941,
        "meta_mean_motion_dot": -0.01386945,
        "meta_mean_motion_ddot": 0,
        "tle_line1": "1 67043U 25294P   25353.91668981 -.01386945  00000+0 -50743-2 0  9996",
        "tle_line2": "2 67043  42.9999 138.2975 0001604 275.8346 225.9603 15.90058120  1464"
      },
      "geometry": {
        "type": "Point",
        "coordinates": [
          -44.277331974583355,
          0.5466746623726063
        ]
      }
    },
    {
      "type": "Feature",
      "properties": {
        "norad_id": 67044,
        "name": "STARLINK-35884",
        "group": "last-30-days",
        "lat": -0.8112787604486534,
        "lon": -42.825027152659196,
        "alt_km": 304.79904106920367,
        "timestamp": "2025-12-20T05:41:48.745650+00:00",
        "meta_object_name": "STARLINK-35884",
        "meta_object_id": "2025-294Q",
        "meta_epoch": "2025-12-19T22:00:01.999584",
        "meta_mean_motion": 15.9010048,
        "meta_eccentricity": 0.00016738,
        "meta_inclination": 42.9999,
        "meta_ra_of_asc_node": 138.2925,
        "meta_arg_of_pericenter": 276.7884,
        "meta_mean_anomaly": 226.9499,
        "meta_ephemeris_type": 0,
        "meta_classification_type": "U",
        "meta_norad_cat_id": 67044,
        "meta_element_set_no": 999,
        "meta_rev_at_epoch": 146,
        "meta_bstar": -0.0050617408,
        "meta_mean_motion_dot": -0.01386654,
        "meta_mean_motion_ddot": 0,
        "tle_line1": "1 67044U 25294Q   25353.91668981 -.01386654  00000+0 -50617-2 0  9994",
        "tle_line2": "2 67044  42.9999 138.2925 0001673 276.7884 226.9499 15.90100480  1464"
      },
      "geometry": {
        "type": "Point",
        "coordinates": [
          -42.825027152659196,
          -0.8112787604486534
        ]
      }
    }
  ]
}